CCSDS_OMM_VERS = 2.0
CREATION_DATE  = 
ORIGINATOR     = 

OBJECT_NAME    = HXMT (HUIYAN)
OBJECT_ID      = 2017-034A
CENTER_NAME    = EARTH
REF_FRAME      = TEME
TIME_SYSTEM    = UTC
MEAN_ELEMENT_THEORY = SGP/SGP4

EPOCH          = 2026-04-05T19:51:57.381408
MEAN_MOTION    = 15.17841228
ECCENTRICITY   = .0030731
INCLINATION    = 43.0140
RA_OF_ASC_NODE = 225.7544
ARG_OF_PERICENTER = 44.6178
MEAN_ANOMALY   = 315.7137

EPHEMERIS_TYPE = 0
CLASSIFICATION_TYPE = U
NORAD_CAT_ID   = 42758
ELEMENT_SET_NO = 999
REV_AT_EPOCH   = 48666
BSTAR          = .43004E-3
MEAN_MOTION_DOT = .8738E-4
MEAN_MOTION_DDOT = 0

CCSDS_OMM_VERS = 2.0
CREATION_DATE  = 
ORIGINATOR     = 

OBJECT_NAME    = SAOCOM 1A
OBJECT_ID      = 2018-076A
CENTER_NAME    = EARTH
REF_FRAME      = TEME
TIME_SYSTEM    = UTC
MEAN_ELEMENT_THEORY = SGP/SGP4

EPOCH          = 2026-04-05T21:35:38.572800
MEAN_MOTION    = 14.82152388
ECCENTRICITY   = .0001351
INCLINATION    = 97.8904
RA_OF_ASC_NODE = 283.6887
ARG_OF_PERICENTER = 92.6010
MEAN_ANOMALY   = 267.5358

EPHEMERIS_TYPE = 0
CLASSIFICATION_TYPE = U
NORAD_CAT_ID   = 43641
ELEMENT_SET_NO = 999
REV_AT_EPOCH   = 40539
BSTAR          = .16028E-3
MEAN_MOTION_DOT = .1224E-4
MEAN_MOTION_DDOT = 0

CCSDS_OMM_VERS = 2.0
CREATION_DATE  = 
ORIGINATOR     = 

OBJECT_NAME    = H-2A R/B
OBJECT_ID      = 2018-084L
CENTER_NAME    = EARTH
REF_FRAME      = TEME
TIME_SYSTEM    = UTC
MEAN_ELEMENT_THEORY = SGP/SGP4

EPOCH          = 2026-04-05T20:36:21.179808
MEAN_MOTION    = 15.42591783
ECCENTRICITY   = .002324
INCLINATION    = 98.8679
RA_OF_ASC_NODE = 319.0742
ARG_OF_PERICENTER = 289.4308
MEAN_ANOMALY   = 70.4423

EPHEMERIS_TYPE = 0
CLASSIFICATION_TYPE = U
NORAD_CAT_ID   = 43682
ELEMENT_SET_NO = 999
REV_AT_EPOCH   = 40996
BSTAR          = .5067E-3
MEAN_MOTION_DOT = .22167E-3
MEAN_MOTION_DDOT = 0

CCSDS_OMM_VERS = 2.0
CREATION_DATE  = 
ORIGINATOR     = 

OBJECT_NAME    = SAOCOM 1B
OBJECT_ID      = 2020-059A
CENTER_NAME    = EARTH
REF_FRAME      = TEME
TIME_SYSTEM    = UTC
MEAN_ELEMENT_THEORY = SGP/SGP4

EPOCH          = 2026-04-05T19:06:12.780864
MEAN_MOTION    = 14.82152423
ECCENTRICITY   = .0001405
INCLINATION    = 97.8883
RA_OF_ASC_NODE = 282.6824
ARG_OF_PERICENTER = 83.8372
MEAN_ANOMALY   = 276.3001

EPHEMERIS_TYPE = 0
CLASSIFICATION_TYPE = U
NORAD_CAT_ID   = 46265
ELEMENT_SET_NO = 999
REV_AT_EPOCH   = 30276
BSTAR          = .10411E-3
MEAN_MOTION_DOT = .777E-5
MEAN_MOTION_DDOT = 0

CCSDS_OMM_VERS = 2.0
CREATION_DATE  = 
ORIGINATOR     = 

OBJECT_NAME    = CSS (TIANHE)
OBJECT_ID      = 2021-035A
CENTER_NAME    = EARTH
REF_FRAME      = TEME
TIME_SYSTEM    = UTC
MEAN_ELEMENT_THEORY = SGP/SGP4

EPOCH          = 2026-04-05T21:35:59.578368
MEAN_MOTION    = 15.61975413
ECCENTRICITY   = .0003645
INCLINATION    = 41.4683
RA_OF_ASC_NODE = 42.4237
ARG_OF_PERICENTER = 135.7211
MEAN_ANOMALY   = 224.3921

EPHEMERIS_TYPE = 0
CLASSIFICATION_TYPE = U
NORAD_CAT_ID   = 48274
ELEMENT_SET_NO = 999
REV_AT_EPOCH   = 28186
BSTAR          = .33283E-3
MEAN_MOTION_DOT = .29649E-3
MEAN_MOTION_DDOT = 0

CCSDS_OMM_VERS = 2.0
CREATION_DATE  = 
ORIGINATOR     = 

OBJECT_NAME    = COSMOS 2550
OBJECT_ID      = 2021-056A
CENTER_NAME    = EARTH
REF_FRAME      = TEME
TIME_SYSTEM    = UTC
MEAN_ELEMENT_THEORY = SGP/SGP4

EPOCH          = 2026-04-04T09:42:48.621024
MEAN_MOTION    = 15.33837300
ECCENTRICITY   = .00084309
INCLINATION    = 67.1431
RA_OF_ASC_NODE = 323.0974
ARG_OF_PERICENTER = 269.6767
MEAN_ANOMALY   = 90.3422

EPHEMERIS_TYPE = 0
CLASSIFICATION_TYPE = U
NORAD_CAT_ID   = 48865
ELEMENT_SET_NO = 999
REV_AT_EPOCH   = 26740
BSTAR          = .91325794E-4
MEAN_MOTION_DOT = .2815E-4
MEAN_MOTION_DDOT = 0

CCSDS_OMM_VERS = 2.0
CREATION_DATE  = 
ORIGINATOR     = 

OBJECT_NAME    = CZ-2C R/B
OBJECT_ID      = 2022-058K
CENTER_NAME    = EARTH
REF_FRAME      = TEME
TIME_SYSTEM    = UTC
MEAN_ELEMENT_THEORY = SGP/SGP4

EPOCH          = 2026-04-05T16:33:59.078304
MEAN_MOTION    = 15.56430439
ECCENTRICITY   = .0041029
INCLINATION    = 50.1871
RA_OF_ASC_NODE = 179.1837
ARG_OF_PERICENTER = 316.4982
MEAN_ANOMALY   = 43.2755

EPHEMERIS_TYPE = 0
CLASSIFICATION_TYPE = U
NORAD_CAT_ID   = 52794
ELEMENT_SET_NO = 999
REV_AT_EPOCH   = 21433
BSTAR          = .51887E-3
MEAN_MOTION_DOT = .38563E-3
MEAN_MOTION_DDOT = 0

CCSDS_OMM_VERS = 2.0
CREATION_DATE  = 
ORIGINATOR     = 

OBJECT_NAME    = CZ-2C R/B
OBJECT_ID      = 2022-132E
CENTER_NAME    = EARTH
REF_FRAME      = TEME
TIME_SYSTEM    = UTC
MEAN_ELEMENT_THEORY = SGP/SGP4

EPOCH          = 2026-04-05T13:53:59.296992
MEAN_MOTION    = 15.64550164
ECCENTRICITY   = .0015602
INCLINATION    = 97.2954
RA_OF_ASC_NODE = 99.7644
ARG_OF_PERICENTER = 0.0429
MEAN_ANOMALY   = 0.0829

EPHEMERIS_TYPE = 0
CLASSIFICATION_TYPE = U
NORAD_CAT_ID   = 54039
ELEMENT_SET_NO = 999
REV_AT_EPOCH   = 19457
BSTAR          = .55713E-3
MEAN_MOTION_DOT = .54135E-3
MEAN_MOTION_DDOT = 0

CCSDS_OMM_VERS = 2.0
CREATION_DATE  = 
ORIGINATOR     = 

OBJECT_NAME    = GSLV R/B
OBJECT_ID      = 2022-138AN
CENTER_NAME    = EARTH
REF_FRAME      = TEME
TIME_SYSTEM    = UTC
MEAN_ELEMENT_THEORY = SGP/SGP4

EPOCH          = 2026-04-05T14:17:01.680576
MEAN_MOTION    = 14.96956391
ECCENTRICITY   = .0023549
INCLINATION    = 87.3847
RA_OF_ASC_NODE = 157.3532
ARG_OF_PERICENTER = 58.2980
MEAN_ANOMALY   = 302.0543

EPHEMERIS_TYPE = 0
CLASSIFICATION_TYPE = U
NORAD_CAT_ID   = 54149
ELEMENT_SET_NO = 999
REV_AT_EPOCH   = 18795
BSTAR          = .28631E-3
MEAN_MOTION_DOT = .3336E-4
MEAN_MOTION_DDOT = 0

CCSDS_OMM_VERS = 2.0
CREATION_DATE  = 
ORIGINATOR     = 

OBJECT_NAME    = XRISM
OBJECT_ID      = 2023-137A
CENTER_NAME    = EARTH
REF_FRAME      = TEME
TIME_SYSTEM    = UTC
MEAN_ELEMENT_THEORY = SGP/SGP4

EPOCH          = 2026-04-05T07:36:15.890976
MEAN_MOTION    = 15.11831629
ECCENTRICITY   = .0007823
INCLINATION    = 31.0012
RA_OF_ASC_NODE = 111.3941
ARG_OF_PERICENTER = 306.0924
MEAN_ANOMALY   = 53.8990

EPHEMERIS_TYPE = 0
CLASSIFICATION_TYPE = U
NORAD_CAT_ID   = 57800
ELEMENT_SET_NO = 999
REV_AT_EPOCH   = 14182
BSTAR          = .36174E-3
MEAN_MOTION_DOT = .6438E-4
MEAN_MOTION_DDOT = 0

CCSDS_OMM_VERS = 2.0
CREATION_DATE  = 
ORIGINATOR     = 

OBJECT_NAME    = ACS3
OBJECT_ID      = 2024-077B
CENTER_NAME    = EARTH
REF_FRAME      = TEME
TIME_SYSTEM    = UTC
MEAN_ELEMENT_THEORY = SGP/SGP4

EPOCH          = 2026-04-05T20:19:28.024896
MEAN_MOTION    = 13.91046359
ECCENTRICITY   = .0073223
INCLINATION    = 97.1941
RA_OF_ASC_NODE = 30.8564
ARG_OF_PERICENTER = 15.8603
MEAN_ANOMALY   = 344.4831

EPHEMERIS_TYPE = 0
CLASSIFICATION_TYPE = U
NORAD_CAT_ID   = 59588
ELEMENT_SET_NO = 999
REV_AT_EPOCH   = 9797
BSTAR          = .35966E-1
MEAN_MOTION_DOT = .46388E-3
MEAN_MOTION_DDOT = 0

CCSDS_OMM_VERS = 2.0
CREATION_DATE  = 
ORIGINATOR     = 

OBJECT_NAME    = HTV-X1
OBJECT_ID      = 2025-241A
CENTER_NAME    = EARTH
REF_FRAME      = TEME
TIME_SYSTEM    = UTC
MEAN_ELEMENT_THEORY = SGP/SGP4

EPOCH          = 2026-04-05T20:14:35.045952
MEAN_MOTION    = 15.32552432
ECCENTRICITY   = .0007382
INCLINATION    = 51.6366
RA_OF_ASC_NODE = 302.1676
ARG_OF_PERICENTER = 277.6450
MEAN_ANOMALY   = 82.3693

EPHEMERIS_TYPE = 0
CLASSIFICATION_TYPE = U
NORAD_CAT_ID   = 66174
ELEMENT_SET_NO = 999
REV_AT_EPOCH   = 2510
BSTAR          = .20769E-3
MEAN_MOTION_DOT = .6264E-4
MEAN_MOTION_DDOT = 0

CCSDS_OMM_VERS = 2.0
CREATION_DATE  = 
ORIGINATOR     = 

OBJECT_NAME    = SZ-21 MODULE
OBJECT_ID      = 2025-246C
CENTER_NAME    = EARTH
REF_FRAME      = TEME
TIME_SYSTEM    = UTC
MEAN_ELEMENT_THEORY = SGP/SGP4

EPOCH          = 2026-04-05T13:00:16.474176
MEAN_MOTION    = 15.70809155
ECCENTRICITY   = .0003531
INCLINATION    = 41.4755
RA_OF_ASC_NODE = 37.8006
ARG_OF_PERICENTER = 233.2393
MEAN_ANOMALY   = 126.8126

EPHEMERIS_TYPE = 0
CLASSIFICATION_TYPE = U
NORAD_CAT_ID   = 66515
ELEMENT_SET_NO = 999
REV_AT_EPOCH   = 2229
BSTAR          = .35049E-3
MEAN_MOTION_DOT = .4484E-3
MEAN_MOTION_DDOT = 0

